{"type": "FeatureCollection", "features": [{"type": "Feature", "properties": {"line": "S2", "color": "#804387", "stops": [{"n": "Mörsch Narzissenstraße", "c": [48.96567, 8.30177]}, {"n": "Mörsch Rösselsbrünnle", "c": [48.96746, 8.30489]}, {"n": "Forchheim Oberfeldstraße", "c": [48.96998, 8.30756]}, {"n": "Forchheim Hauptstraße", "c": [48.97471, 8.31217]}, {"n": "Forchheim Hallenbad", "c": [48.97821, 8.31645]}, {"n": "Forchheim Leichtsandstr./Messe KA", "c": [48.98188, 8.32296]}, {"n": "Daxlanden Nussbaumweg", "c": [48.98915, 8.33301]}, {"n": "Daxlanden Dornröschenweg", "c": [48.99252, 8.33506]}, {"n": "Daxlanden Karl-Delisle-Straße", "c": [48.99576, 8.33779]}, {"n": "Daxlanden Thomas-Mann-Straße", "c": [48.99923, 8.34156]}, {"n": "Rheinhafenstraße", "c": [49.00139, 8.3449]}, {"n": "Eckenerstraße", "c": [49.00576, 8.35044]}, {"n": "Entenfang", "c": [49.01054, 8.35917]}, {"n": "Philippstraße", "c": [49.01145, 8.36417]}, {"n": "Händelstraße", "c": [49.01125, 8.36905]}, {"n": "Yorckstraße", "c": [49.01096, 8.37535]}, {"n": "Mühlburger Tor", "c": [49.01062, 8.38276]}, {"n": "Europaplatz (U)", "c": [49.01007, 8.39371]}, {"n": "Marktplatz (Kaiserstraße U)", "c": [49.00971, 8.40167]}, {"n": "Kronenplatz (U)", "c": [49.00936, 8.40998]}, {"n": "Durlacher Tor/KIT-Campus Süd (U)", "c": [49.009, 8.41669]}, {"n": "Gottesauer Platz/BGV", "c": [49.00758, 8.42455]}, {"n": "Tullastraße/Alter Schlachthof", "c": [49.00629, 8.43165]}, {"n": "Essenweinstraße", "c": [49.00931, 8.43187]}, {"n": "Hauptfriedhof", "c": [49.01361, 8.42922]}, {"n": "Hirtenweg/Technologiepark", "c": [49.01709, 8.43867]}, {"n": "Rintheim Sinsheimer Straße", "c": [49.02073, 8.44466]}, {"n": "Hagsfeld Süd", "c": [49.02422, 8.44912]}, {"n": "Hagsfeld Bahnhof", "c": [49.02723, 8.45373]}, {"n": "Hagsfeld Geroldsäcker", "c": [49.03291, 8.45536]}, {"n": "Hagsfeld Jenaer Straße", "c": [49.03573, 8.45613]}, {"n": "Hagsfeld Reitschulschlag", "c": [49.04252, 8.4608]}, {"n": "Büchig", "c": [49.04756, 8.46107]}, {"n": "Blankenloch Süd", "c": [49.05702, 8.46677]}, {"n": "Blankenloch Tolna-Platz", "c": [49.06007, 8.46923]}, {"n": "Blankenloch Kirche", "c": [49.06448, 8.47132]}, {"n": "Blankenloch Mühlenweg", "c": [49.06861, 8.47432]}, {"n": "Blankenloch Nord", "c": [49.07326, 8.46787]}]}, "geometry": {"type": "LineString", "coordinates": [[8.30177, 48.96567], [8.30489, 48.96746], [8.30756, 48.96998], [8.31217, 48.97471], [8.31645, 48.97821], [8.32296, 48.98188], [8.33301, 48.98915], [8.33506, 48.99252], [8.33779, 48.99576], [8.34156, 48.99923], [8.3449, 49.00139], [8.35044, 49.00576], [8.35917, 49.01054], [8.36417, 49.01145], [8.41669, 49.009], [8.43165, 49.00629], [8.43187, 49.00931], [8.42922, 49.01361], [8.43867, 49.01709], [8.44466, 49.02073], [8.44912, 49.02422], [8.45373, 49.02723], [8.45613, 49.03573], [8.4608, 49.04252], [8.46107, 49.04756], [8.46677, 49.05702], [8.46923, 49.06007], [8.47132, 49.06448], [8.47432, 49.06861], [8.46787, 49.07326]]}}, {"type": "Feature", "properties": {"line": "17", "color": "#520000", "stops": [{"n": "Waldstadt Europäische Schule", "c": [49.0448, 8.4468]}, {"n": "Waldstadt Osteroder Straße", "c": [49.0432, 8.44766]}, {"n": "Waldstadt Elbinger Straße Ost", "c": [49.04079, 8.45069]}, {"n": "Waldstadt Jägerhaus", "c": [49.03682, 8.44691]}, {"n": "Waldstadt Zentrum", "c": [49.03501, 8.44508]}, {"n": "Waldstadt Glogauer Straße", "c": [49.03171, 8.44178]}, {"n": "Waldstadt Im Eichbäumle", "c": [49.02957, 8.44783]}, {"n": "Hagsfeld Fächerbad", "c": [49.02531, 8.44805]}, {"n": "Rintheim Sinsheimer Straße", "c": [49.02073, 8.44466]}, {"n": "Hirtenweg/Technologiepark", "c": [49.01709, 8.43867]}, {"n": "Hauptfriedhof", "c": [49.01361, 8.42922]}, {"n": "Essenweinstraße", "c": [49.00931, 8.43187]}, {"n": "Tullastraße/Alter Schlachthof", "c": [49.00629, 8.43165]}, {"n": "Schloss Gottesaue", "c": [49.00365, 8.42693]}, {"n": "Wolfartsweierer Str.", "c": [49.00356, 8.42306]}, {"n": "Ostendstraße", "c": [49.00514, 8.41601]}, {"n": "Philipp-Reis-Straße", "c": [49.00449, 8.4109]}, {"n": "Werderstraße", "c": [49.00015, 8.4106]}, {"n": "Tivoli", "c": [48.99664, 8.4104]}, {"n": "Poststraße", "c": [48.99504, 8.40307]}, {"n": "Hauptbahnhof (Vorplatz)", "c": [48.99432, 8.39917]}, {"n": "Ebertstraße", "c": [48.99459, 8.39468]}, {"n": "Kolpingplatz", "c": [48.99773, 8.3938]}, {"n": "Mathystraße", "c": [49.00217, 8.39433]}, {"n": "Otto-Sachs-Straße", "c": [49.00339, 8.38955]}, {"n": "Lessingstraße", "c": [49.00441, 8.38384]}, {"n": "Weinbrennerplatz", "c": [49.00514, 8.37783]}, {"n": "Sophienstraße", "c": [49.00751, 8.37906]}, {"n": "Schillerstraße", "c": [49.00976, 8.37966]}, {"n": "Yorckstraße", "c": [49.01096, 8.37535]}, {"n": "Händelstraße", "c": [49.01125, 8.36905]}, {"n": "Philippstraße", "c": [49.01145, 8.36417]}, {"n": "Entenfang", "c": [49.01054, 8.35917]}, {"n": "Lameyplatz", "c": [49.01323, 8.35448]}, {"n": "Rheinhafen", "c": [49.01575, 8.34738]}]}, "geometry": {"type": "LineString", "coordinates": [[8.4468, 49.0448], [8.44766, 49.0432], [8.45069, 49.04079], [8.44691, 49.03682], [8.44178, 49.03171], [8.44783, 49.02957], [8.44805, 49.02531], [8.44466, 49.02073], [8.43867, 49.01709], [8.42922, 49.01361], [8.43187, 49.00931], [8.43165, 49.00629], [8.42693, 49.00365], [8.42306, 49.00356], [8.41601, 49.00514], [8.4109, 49.00449], [8.4104, 48.99664], [8.40307, 48.99504], [8.39917, 48.99432], [8.39468, 48.99459], [8.3938, 48.99773], [8.39433, 49.00217], [8.38955, 49.00339], [8.38384, 49.00441], [8.37783, 49.00514], [8.37906, 49.00751], [8.37966, 49.00976], [8.37535, 49.01096], [8.36417, 49.01145], [8.35917, 49.01054], [8.35448, 49.01323], [8.34738, 49.01575]]}}, {"type": "Feature", "properties": {"line": "18", "color": "#178a17", "stops": [{"n": "Waldstadt Europäische Schule", "c": [49.0448, 8.4468]}, {"n": "Waldstadt Osteroder Straße", "c": [49.0432, 8.44766]}, {"n": "Waldstadt Elbinger Straße Ost", "c": [49.04079, 8.45069]}, {"n": "Waldstadt Jägerhaus", "c": [49.03682, 8.44691]}, {"n": "Waldstadt Zentrum", "c": [49.03501, 8.44508]}, {"n": "Waldstadt Glogauer Straße", "c": [49.03171, 8.44178]}, {"n": "Waldstadt Im Eichbäumle", "c": [49.02957, 8.44783]}, {"n": "Hagsfeld Fächerbad", "c": [49.02531, 8.44805]}, {"n": "Rintheim Sinsheimer Straße", "c": [49.02073, 8.44466]}, {"n": "Hirtenweg/Technologiepark", "c": [49.01709, 8.43867]}, {"n": "Hauptfriedhof", "c": [49.01361, 8.42922]}, {"n": "Essenweinstraße", "c": [49.00931, 8.43187]}, {"n": "Tullastraße/Alter Schlachthof", "c": [49.00629, 8.43165]}, {"n": "Durlach Auer Str./Dr. Schwabe", "c": [49.00053, 8.46315]}, {"n": "Durlach Friedrichschule", "c": [48.99934, 8.46855]}, {"n": "Durlach Schlossplatz", "c": [48.99912, 8.47356]}, {"n": "Durlach Turmberg", "c": [48.99987, 8.47852]}]}, "geometry": {"type": "LineString", "coordinates": [[8.4468, 49.0448], [8.44766, 49.0432], [8.45069, 49.04079], [8.44691, 49.03682], [8.44178, 49.03171], [8.44783, 49.02957], [8.44805, 49.02531], [8.44466, 49.02073], [8.43867, 49.01709], [8.42922, 49.01361], [8.43187, 49.00931], [8.43165, 49.00629], [8.46315, 49.00053], [8.46855, 48.99934], [8.47356, 48.99912], [8.47852, 48.99987]]}}, {"type": "Feature", "properties": {"line": "1", "color": "#cb0b27", "stops": [{"n": "Neureut-Heide", "c": [49.0368, 8.38821]}, {"n": "Heidehof", "c": [49.03168, 8.38712]}, {"n": "Duale Hochschule", "c": [49.02725, 8.38619]}, {"n": "Lilienthalstraße", "c": [49.02268, 8.38523]}, {"n": "Synagoge", "c": [49.01826, 8.38485]}, {"n": "Kunstakademie/Hochschule", "c": [49.01462, 8.38563]}, {"n": "Mühlburger Tor", "c": [49.01062, 8.38276]}, {"n": "Europaplatz (U)", "c": [49.01007, 8.39371]}, {"n": "Marktplatz (Kaiserstraße U)", "c": [49.00971, 8.40167]}, {"n": "Kronenplatz (U)", "c": [49.00936, 8.40998]}, {"n": "Durlacher Tor/KIT-Campus Süd (U)", "c": [49.009, 8.41669]}, {"n": "Gottesauer Platz/BGV", "c": [49.00758, 8.42455]}, {"n": "Tullastraße/Alter Schlachthof", "c": [49.00629, 8.43165]}, {"n": "Weinweg", "c": [49.0045, 8.44112]}, {"n": "Durlach Untermühlstraße", "c": [49.00207, 8.45497]}, {"n": "Durlach Auer Str./Dr. Schwabe", "c": [49.00053, 8.46315]}, {"n": "Durlach Friedrichschule", "c": [48.99934, 8.46855]}, {"n": "Durlach Schlossplatz", "c": [48.99912, 8.47356]}, {"n": "Durlach Turmberg", "c": [48.99987, 8.47852]}]}, "geometry": {"type": "LineString", "coordinates": [[8.38821, 49.0368], [8.38523, 49.02268], [8.38485, 49.01826], [8.38563, 49.01462], [8.38276, 49.01062], [8.41669, 49.009], [8.45497, 49.00207], [8.46315, 49.00053], [8.46855, 48.99934], [8.47356, 48.99912], [8.47852, 48.99987]]}}, {"type": "Feature", "properties": {"line": "NL1", "color": "#FF0000", "stops": [{"n": "Waldstadt Europäische Schule", "c": [49.0448, 8.4468]}, {"n": "Waldstadt Osteroder Straße", "c": [49.0432, 8.44766]}, {"n": "Waldstadt Elbinger Straße Ost", "c": [49.04079, 8.45069]}, {"n": "Waldstadt Jägerhaus", "c": [49.03682, 8.44691]}, {"n": "Waldstadt Zentrum", "c": [49.03501, 8.44508]}, {"n": "Waldstadt Glogauer Straße", "c": [49.03171, 8.44178]}, {"n": "Waldstadt Im Eichbäumle", "c": [49.02957, 8.44783]}, {"n": "Hagsfeld Fächerbad", "c": [49.02531, 8.44805]}, {"n": "Rintheim Sinsheimer Straße", "c": [49.02073, 8.44466]}, {"n": "Hirtenweg/Technologiepark", "c": [49.01709, 8.43867]}, {"n": "Hauptfriedhof", "c": [49.01361, 8.42922]}, {"n": "Essenweinstraße", "c": [49.00931, 8.43187]}, {"n": "Tullastraße/Alter Schlachthof", "c": [49.00629, 8.43165]}, {"n": "Gottesauer Platz/BGV", "c": [49.00758, 8.42455]}, {"n": "Durlacher Tor/KIT-Campus Süd (U)", "c": [49.009, 8.41669]}, {"n": "Kronenplatz (U)", "c": [49.00936, 8.40998]}, {"n": "Marktplatz (Kaiserstraße U)", "c": [49.00971, 8.40167]}, {"n": "Europaplatz (U)", "c": [49.01007, 8.39371]}, {"n": "Mühlburger Tor", "c": [49.01062, 8.38276]}, {"n": "Kunstakademie/Hochschule", "c": [49.01462, 8.38563]}, {"n": "Synagoge", "c": [49.01826, 8.38485]}, {"n": "Lilienthalstraße", "c": [49.02268, 8.38523]}, {"n": "Duale Hochschule", "c": [49.02725, 8.38619]}, {"n": "Heidehof", "c": [49.03168, 8.38712]}, {"n": "Neureut-Heide", "c": [49.0368, 8.38821]}]}, "geometry": {"type": "LineString", "coordinates": [[8.4468, 49.0448], [8.44766, 49.0432], [8.45069, 49.04079], [8.44691, 49.03682], [8.44178, 49.03171], [8.44783, 49.02957], [8.44805, 49.02531], [8.44466, 49.02073], [8.43867, 49.01709], [8.42922, 49.01361], [8.43187, 49.00931], [8.43165, 49.00629], [8.41669, 49.009], [8.38276, 49.01062], [8.38563, 49.01462], [8.38485, 49.01826], [8.38523, 49.02268], [8.38821, 49.0368]]}}, {"type": "Feature", "properties": {"line": "2", "color": "#004d95", "stops": [{"n": "Knielingen Nord", "c": [49.03774, 8.34778]}, {"n": "Knielingen Egon-Eiermann-Allee", "c": [49.03598, 8.35015]}, {"n": "Knielingen Pionierstraße", "c": [49.03348, 8.34809]}, {"n": "Knielingen Sudetenstraße", "c": [49.03054, 8.34512]}, {"n": "Knielingen Siemensallee", "c": [49.02788, 8.34981]}, {"n": "Neureuter Straße", "c": [49.02373, 8.35733]}, {"n": "Feierabendweg", "c": [49.02199, 8.36056]}, {"n": "Hertzstraße", "c": [49.02008, 8.36409]}, {"n": "Kußmaulstr./Städt. Klinikum", "c": [49.01697, 8.36912]}, {"n": "Moltkestr./Städt. Klinikum", "c": [49.01571, 8.37517]}, {"n": "Yorckstraße", "c": [49.01096, 8.37535]}, {"n": "Mühlburger Tor", "c": [49.01062, 8.38276]}, {"n": "Europaplatz", "c": [49.01007, 8.39311]}, {"n": "Karlstor/Bundesgerichtshof", "c": [49.00518, 8.39462]}, {"n": "Mathystraße", "c": [49.00217, 8.39433]}, {"n": "Otto-Sachs-Straße", "c": [49.00339, 8.38955]}, {"n": "Arbeitsagentur", "c": [49.00392, 8.38649]}, {"n": "ZKM", "c": [48.9998, 8.38608]}, {"n": "Welfenstraße", "c": [48.99533, 8.38493]}, {"n": "Barbarossaplatz", "c": [48.99501, 8.38884]}, {"n": "Ebertstraße", "c": [48.99459, 8.39468]}, {"n": "Hauptbahnhof (Vorplatz)", "c": [48.99432, 8.39917]}, {"n": "Poststraße", "c": [48.99504, 8.40307]}, {"n": "Augartenstraße", "c": [48.99847, 8.40371]}, {"n": "Kongresszentrum (U)", "c": [49.00217, 8.40311]}, {"n": "Ettlinger Tor/Staatstheater (U)", "c": [49.00508, 8.40343]}, {"n": "Marktplatz (Pyramide U)", "c": [49.0083, 8.40377]}, {"n": "Kronenplatz (U)", "c": [49.00936, 8.40998]}, {"n": "Durlacher Tor/KIT-Campus Süd (U)", "c": [49.009, 8.41669]}, {"n": "Gottesauer Platz/BGV", "c": [49.00758, 8.42455]}, {"n": "Tullastraße/Alter Schlachthof", "c": [49.00629, 8.43165]}, {"n": "Weinweg", "c": [49.0045, 8.44112]}, {"n": "Durlach Untermühlstraße", "c": [49.00207, 8.45497]}, {"n": "Durlach Auer Str./Dr. Schwabe", "c": [49.00053, 8.46315]}, {"n": "Durlach Gritznerstraße", "c": [48.99946, 8.46416]}, {"n": "Durlach Killisfeldstraße", "c": [48.99717, 8.46184]}, {"n": "Durlach Ellmendinger Straße", "c": [48.99427, 8.45897]}, {"n": "Durlach Ostmarkstraße", "c": [48.99226, 8.4536]}, {"n": "Durlach Schlesier Straße West", "c": [48.98876, 8.45221]}, {"n": "Durlach Steiermärker Straße", "c": [48.98592, 8.4558]}, {"n": "Durlach Zündhütle", "c": [48.9828, 8.46011]}, {"n": "Wolfartsweier Nord", "c": [48.97916, 8.45882]}]}, "geometry": {"type": "LineString", "coordinates": [[8.34778, 49.03774], [8.35015, 49.03598], [8.34809, 49.03348], [8.34512, 49.03054], [8.36409, 49.02008], [8.36912, 49.01697], [8.37517, 49.01571], [8.37535, 49.01096], [8.39311, 49.01007], [8.39462, 49.00518], [8.39433, 49.00217], [8.38955, 49.00339], [8.38649, 49.00392], [8.38608, 48.9998], [8.38493, 48.99533], [8.39917, 48.99432], [8.40307, 48.99504], [8.40371, 48.99847], [8.40311, 49.00217], [8.40377, 49.0083], [8.40998, 49.00936], [8.41669, 49.009], [8.46315, 49.00053], [8.46416, 48.99946], [8.45897, 48.99427], [8.4536, 48.99226], [8.45221, 48.98876], [8.4558, 48.98592], [8.46011, 48.9828], [8.45882, 48.97916]]}}, {"type": "Feature", "properties": {"line": "NL2", "color": "#0073df", "stops": [{"n": "Oberreut Badeniaplatz", "c": [48.98195, 8.36825]}, {"n": "Oberreut Wilhelm-Leuschner-Str.", "c": [48.98333, 8.3652]}, {"n": "Oberreut Zentrum", "c": [48.98583, 8.36226]}, {"n": "Oberreut Albert-Braun-Straße", "c": [48.98898, 8.36323]}, {"n": "Hardecksiedlung", "c": [48.99252, 8.36861]}, {"n": "Bannwaldallee", "c": [48.99515, 8.37239]}, {"n": "Europahalle/Europabad", "c": [48.99848, 8.37624]}, {"n": "Landesbausparkasse", "c": [49.00136, 8.37751]}, {"n": "Weinbrennerplatz", "c": [49.00514, 8.37783]}, {"n": "Sophienstraße", "c": [49.00751, 8.37906]}, {"n": "Schillerstraße", "c": [49.00976, 8.37966]}, {"n": "Mühlburger Tor", "c": [49.01062, 8.38276]}, {"n": "Europaplatz", "c": [49.01007, 8.39311]}, {"n": "Karlstor/Bundesgerichtshof", "c": [49.00518, 8.39462]}, {"n": "Mathystraße", "c": [49.00217, 8.39433]}, {"n": "Otto-Sachs-Straße", "c": [49.00339, 8.38955]}, {"n": "Arbeitsagentur", "c": [49.00392, 8.38649]}, {"n": "ZKM", "c": [48.9998, 8.38608]}, {"n": "Welfenstraße", "c": [48.99533, 8.38493]}, {"n": "Barbarossaplatz", "c": [48.99501, 8.38884]}, {"n": "Ebertstraße", "c": [48.99459, 8.39468]}, {"n": "Hauptbahnhof (Vorplatz)", "c": [48.99432, 8.39917]}, {"n": "Poststraße", "c": [48.99504, 8.40307]}, {"n": "Augartenstraße", "c": [48.99847, 8.40371]}, {"n": "Kongresszentrum (U)", "c": [49.00217, 8.40311]}, {"n": "Ettlinger Tor/Staatstheater (U)", "c": [49.00508, 8.40343]}, {"n": "Marktplatz (Pyramide U)", "c": [49.0083, 8.40377]}, {"n": "Kronenplatz (U)", "c": [49.00936, 8.40998]}, {"n": "Durlacher Tor/KIT-Campus Süd (U)", "c": [49.009, 8.41669]}, {"n": "Gottesauer Platz/BGV", "c": [49.00758, 8.42455]}, {"n": "Tullastraße/Alter Schlachthof", "c": [49.00629, 8.43165]}, {"n": "Weinweg", "c": [49.0045, 8.44112]}, {"n": "Durlach Untermühlstraße", "c": [49.00207, 8.45497]}, {"n": "Durlach Auer Str./Dr. Schwabe", "c": [49.00053, 8.46315]}, {"n": "Durlach Friedrichschule", "c": [48.99934, 8.46855]}, {"n": "Durlach Schlossplatz", "c": [48.99912, 8.47356]}, {"n": "Durlach Turmberg", "c": [48.99987, 8.47852]}]}, "geometry": {"type": "LineString", "coordinates": [[8.36825, 48.98195], [8.3652, 48.98333], [8.36226, 48.98583], [8.36323, 48.98898], [8.37239, 48.99515], [8.37624, 48.99848], [8.37751, 49.00136], [8.37783, 49.00514], [8.37906, 49.00751], [8.37966, 49.00976], [8.38276, 49.01062], [8.39311, 49.01007], [8.39462, 49.00518], [8.39433, 49.00217], [8.38955, 49.00339], [8.38649, 49.00392], [8.38608, 48.9998], [8.38493, 48.99533], [8.39917, 48.99432], [8.40307, 48.99504], [8.40371, 48.99847], [8.40311, 49.00217], [8.40377, 49.0083], [8.40998, 49.00936], [8.41669, 49.009], [8.45497, 49.00207], [8.46315, 49.00053], [8.46855, 48.99934], [8.47356, 48.99912], [8.47852, 48.99987]]}}, {"type": "Feature", "properties": {"line": "3", "color": "#70582c", "stops": [{"n": "Rintheim", "c": [49.01629, 8.44377]}, {"n": "Rintheim Forststraße", "c": [49.01395, 8.44199]}, {"n": "Dunantstraße", "c": [49.01146, 8.43576]}, {"n": "Hauptfriedhof", "c": [49.01361, 8.42922]}, {"n": "Karl-Wilhelm-Platz", "c": [49.01124, 8.42295]}, {"n": "Durlacher Tor/KIT-Campus Süd", "c": [49.00894, 8.41777]}, {"n": "Kronenplatz", "c": [49.00868, 8.41004]}, {"n": "Rüppurrer Tor", "c": [49.00482, 8.41037]}, {"n": "Werderstraße", "c": [49.00015, 8.4106]}, {"n": "Tivoli", "c": [48.99664, 8.4104]}, {"n": "Poststraße", "c": [48.99504, 8.40307]}, {"n": "Hauptbahnhof (Vorplatz)", "c": [48.99432, 8.39917]}, {"n": "Ebertstraße", "c": [48.99459, 8.39468]}, {"n": "Kolpingplatz", "c": [48.99773, 8.3938]}, {"n": "Mathystraße", "c": [49.00217, 8.39433]}, {"n": "Karlstor/Bundesgerichtshof", "c": [49.00518, 8.39462]}, {"n": "Europaplatz", "c": [49.01007, 8.39311]}, {"n": "Mühlburger Tor", "c": [49.01062, 8.38276]}, {"n": "Yorckstraße", "c": [49.01096, 8.37535]}, {"n": "Händelstraße", "c": [49.01125, 8.36905]}, {"n": "Philippstraße", "c": [49.01145, 8.36417]}, {"n": "Entenfang", "c": [49.01054, 8.35917]}, {"n": "Eckenerstraße", "c": [49.00576, 8.35044]}, {"n": "Stadtwerke", "c": [49.00722, 8.34326]}, {"n": "Daxlanden Mauerweg", "c": [49.00781, 8.33897]}, {"n": "Daxlanden Ankerstraße", "c": [49.00649, 8.33443]}, {"n": "Daxlanden Kirchplatz", "c": [49.00505, 8.33199]}, {"n": "Daxlanden Hammweg", "c": [49.00359, 8.32878]}, {"n": "Daxlanden Waidweg", "c": [49.00429, 8.32305]}]}, "geometry": {"type": "LineString", "coordinates": [[8.44377, 49.01629], [8.44199, 49.01395], [8.43576, 49.01146], [8.42922, 49.01361], [8.42295, 49.01124], [8.41777, 49.00894], [8.41004, 49.00868], [8.4106, 49.00015], [8.4104, 48.99664], [8.40307, 48.99504], [8.39917, 48.99432], [8.39468, 48.99459], [8.3938, 48.99773], [8.39462, 49.00518], [8.39311, 49.01007], [8.36417, 49.01145], [8.35917, 49.01054], [8.35044, 49.00576], [8.34326, 49.00722], [8.33897, 49.00781], [8.33443, 49.00649], [8.33199, 49.00505], [8.32878, 49.00359], [8.32305, 49.00429]]}}, {"type": "Feature", "properties": {"line": "4", "color": "#f1c21f", "stops": [{"n": "Oberreut Badeniaplatz", "c": [48.98195, 8.36825]}, {"n": "Oberreut Wilhelm-Leuschner-Str.", "c": [48.98333, 8.3652]}, {"n": "Oberreut Zentrum", "c": [48.98583, 8.36226]}, {"n": "Oberreut Albert-Braun-Straße", "c": [48.98898, 8.36323]}, {"n": "Hardecksiedlung", "c": [48.99252, 8.36861]}, {"n": "Bannwaldallee", "c": [48.99515, 8.37239]}, {"n": "Europahalle/Europabad", "c": [48.99848, 8.37624]}, {"n": "Landesbausparkasse", "c": [49.00136, 8.37751]}, {"n": "Weinbrennerplatz", "c": [49.00514, 8.37783]}, {"n": "Sophienstraße", "c": [49.00751, 8.37906]}, {"n": "Schillerstraße", "c": [49.00976, 8.37966]}, {"n": "Mühlburger Tor", "c": [49.01062, 8.38276]}, {"n": "Europaplatz", "c": [49.01007, 8.39311]}, {"n": "Karlstor/Bundesgerichtshof", "c": [49.00518, 8.39462]}, {"n": "Ettlinger Tor/Staatstheater", "c": [49.00548, 8.40222]}, {"n": "Rüppurrer Tor", "c": [49.00482, 8.41037]}, {"n": "Durlacher Tor/KIT-Campus Süd", "c": [49.00894, 8.41777]}, {"n": "Karl-Wilhelm-Platz", "c": [49.01124, 8.42295]}, {"n": "Hauptfriedhof", "c": [49.01361, 8.42922]}, {"n": "Hirtenweg/Technologiepark", "c": [49.01709, 8.43867]}, {"n": "Rintheim Sinsheimer Straße", "c": [49.02073, 8.44466]}, {"n": "Hagsfeld Fächerbad", "c": [49.02531, 8.44805]}, {"n": "Waldstadt Im Eichbäumle", "c": [49.02957, 8.44783]}, {"n": "Waldstadt Glogauer Straße", "c": [49.03171, 8.44178]}, {"n": "Waldstadt Zentrum", "c": [49.03501, 8.44508]}, {"n": "Waldstadt Jägerhaus", "c": [49.03682, 8.44691]}, {"n": "Waldstadt Elbinger Straße Ost", "c": [49.04079, 8.45069]}, {"n": "Waldstadt Osteroder Straße", "c": [49.0432, 8.44766]}, {"n": "Waldstadt Europäische Schule", "c": [49.0448, 8.4468]}]}, "geometry": {"type": "LineString", "coordinates": [[8.36825, 48.98195], [8.3652, 48.98333], [8.36226, 48.98583], [8.36323, 48.98898], [8.37239, 48.99515], [8.37624, 48.99848], [8.37751, 49.00136], [8.37783, 49.00514], [8.37906, 49.00751], [8.37966, 49.00976], [8.38276, 49.01062], [8.39311, 49.01007], [8.39462, 49.00518], [8.40222, 49.00548], [8.41037, 49.00482], [8.41777, 49.00894], [8.42295, 49.01124], [8.43867, 49.01709], [8.44466, 49.02073], [8.44805, 49.02531], [8.44783, 49.02957], [8.44178, 49.03171], [8.44691, 49.03682], [8.45069, 49.04079], [8.44766, 49.0432], [8.4468, 49.0448]]}}, {"type": "Feature", "properties": {"line": "5", "color": "#18a6d9", "stops": [{"n": "Durlach Bahnhof", "c": [49.0027, 8.46282]}, {"n": "Durlach Untermühlstraße", "c": [49.00207, 8.45497]}, {"n": "Weinweg", "c": [49.0045, 8.44112]}, {"n": "Tullastraße/Alter Schlachthof", "c": [49.00629, 8.43165]}, {"n": "Schloss Gottesaue", "c": [49.00365, 8.42693]}, {"n": "Wolfartsweierer Str.", "c": [49.00356, 8.42306]}, {"n": "Ostendstraße", "c": [49.00514, 8.41601]}, {"n": "Rüppurrer Tor", "c": [49.00482, 8.41037]}, {"n": "Ettlinger Tor/Staatstheater", "c": [49.00548, 8.40222]}, {"n": "Karlstor/Bundesgerichtshof", "c": [49.00518, 8.39462]}, {"n": "Mathystraße", "c": [49.00217, 8.39433]}, {"n": "Otto-Sachs-Straße", "c": [49.00339, 8.38955]}, {"n": "Lessingstraße", "c": [49.00441, 8.38384]}, {"n": "Weinbrennerplatz", "c": [49.00514, 8.37783]}, {"n": "Sophienstraße", "c": [49.00751, 8.37906]}, {"n": "Schillerstraße", "c": [49.00976, 8.37966]}, {"n": "Yorckstraße", "c": [49.01096, 8.37535]}, {"n": "Händelstraße", "c": [49.01125, 8.36905]}, {"n": "Philippstraße", "c": [49.01145, 8.36417]}, {"n": "Entenfang", "c": [49.01054, 8.35917]}, {"n": "Lameyplatz", "c": [49.01323, 8.35448]}, {"n": "Rheinhafen", "c": [49.01575, 8.34738]}]}, "geometry": {"type": "LineString", "coordinates": [[8.46282, 49.0027], [8.45497, 49.00207], [8.43165, 49.00629], [8.42693, 49.00365], [8.42306, 49.00356], [8.41601, 49.00514], [8.41037, 49.00482], [8.40222, 49.00548], [8.39462, 49.00518], [8.39433, 49.00217], [8.38955, 49.00339], [8.38384, 49.00441], [8.37783, 49.00514], [8.37906, 49.00751], [8.37966, 49.00976], [8.37535, 49.01096], [8.36417, 49.01145], [8.35917, 49.01054], [8.35448, 49.01323], [8.34738, 49.01575]]}}, {"type": "Feature", "properties": {"line": "6", "color": "#63b631", "stops": [{"n": "Arbeitsagentur", "c": [49.00392, 8.38649]}, {"n": "ZKM", "c": [48.9998, 8.38608]}, {"n": "Welfenstraße", "c": [48.99533, 8.38493]}, {"n": "Barbarossaplatz", "c": [48.99501, 8.38884]}, {"n": "Ebertstraße", "c": [48.99459, 8.39468]}, {"n": "Hauptbahnhof (Vorplatz)", "c": [48.99432, 8.39917]}, {"n": "Poststraße", "c": [48.99504, 8.40307]}, {"n": "Tivoli", "c": [48.99664, 8.4104]}]}, "geometry": {"type": "LineString", "coordinates": [[8.38649, 49.00392], [8.38608, 48.9998], [8.38493, 48.99533], [8.39917, 48.99432], [8.40307, 48.99504], [8.4104, 48.99664]]}}, {"type": "Feature", "properties": {"line": "E", "color": "#FF0000", "stops": [{"n": "Oberreut Badeniaplatz", "c": [48.98195, 8.36825]}, {"n": "Oberreut Wilhelm-Leuschner-Str.", "c": [48.98333, 8.3652]}, {"n": "Oberreut Zentrum", "c": [48.98583, 8.36226]}, {"n": "Oberreut Albert-Braun-Straße", "c": [48.98898, 8.36323]}, {"n": "Hardecksiedlung", "c": [48.99252, 8.36861]}, {"n": "Bannwaldallee", "c": [48.99515, 8.37239]}, {"n": "Europahalle/Europabad", "c": [48.99848, 8.37624]}, {"n": "Landesbausparkasse", "c": [49.00136, 8.37751]}, {"n": "Weinbrennerplatz", "c": [49.00514, 8.37783]}, {"n": "Sophienstraße", "c": [49.00751, 8.37906]}, {"n": "Schillerstraße", "c": [49.00976, 8.37966]}, {"n": "Mühlburger Tor", "c": [49.01062, 8.38276]}, {"n": "Europaplatz (U)", "c": [49.01007, 8.39371]}, {"n": "Marktplatz (Kaiserstraße U)", "c": [49.00971, 8.40167]}, {"n": "Marktplatz (Pyramide U)", "c": [49.0083, 8.40377]}, {"n": "Ettlinger Tor/Staatstheater (U)", "c": [49.00508, 8.40343]}, {"n": "Kongresszentrum (U)", "c": [49.00217, 8.40311]}, {"n": "Augartenstraße", "c": [48.99847, 8.40371]}, {"n": "Poststraße", "c": [48.99504, 8.40307]}, {"n": "Hauptbahnhof (Vorplatz)", "c": [48.99432, 8.39917]}]}, "geometry": {"type": "LineString", "coordinates": [[8.36825, 48.98195], [8.3652, 48.98333], [8.36226, 48.98583], [8.36323, 48.98898], [8.37239, 48.99515], [8.37624, 48.99848], [8.37751, 49.00136], [8.37783, 49.00514], [8.37906, 49.00751], [8.37966, 49.00976], [8.38276, 49.01062], [8.40167, 49.00971], [8.40377, 49.0083], [8.40311, 49.00217], [8.40371, 48.99847], [8.40307, 48.99504], [8.39917, 48.99432]]}}, {"type": "Feature", "properties": {"line": "8", "color": "#dc6727", "stops": [{"n": "Wolfartsweier Nord", "c": [48.97916, 8.45882]}, {"n": "Durlach Zündhütle", "c": [48.9828, 8.46011]}, {"n": "Durlach Steiermärker Straße", "c": [48.98592, 8.4558]}, {"n": "Durlach Schlesier Straße West", "c": [48.98876, 8.45221]}, {"n": "Durlach Ostmarkstraße", "c": [48.99226, 8.4536]}, {"n": "Durlach Ellmendinger Straße", "c": [48.99427, 8.45897]}, {"n": "Durlach Killisfeldstraße", "c": [48.99717, 8.46184]}, {"n": "Durlach Gritznerstraße", "c": [48.99946, 8.46416]}, {"n": "Durlach Friedrichschule", "c": [48.99934, 8.46855]}, {"n": "Durlach Schlossplatz", "c": [48.99912, 8.47356]}, {"n": "Durlach Turmberg", "c": [48.99987, 8.47852]}]}, "geometry": {"type": "LineString", "coordinates": [[8.45882, 48.97916], [8.46011, 48.9828], [8.4558, 48.98592], [8.45221, 48.98876], [8.4536, 48.99226], [8.45897, 48.99427], [8.46416, 48.99946], [8.47356, 48.99912], [8.47852, 48.99987]]}}, {"type": "Feature", "properties": {"line": "S1", "color": "#008e50", "stops": [{"n": "Ettlingen Albgaubad", "c": [48.93689, 8.41509]}, {"n": "Ettlingen Stadt", "c": [48.93877, 8.4089]}, {"n": "Ettlingen Erbprinz/Schloss", "c": [48.94124, 8.40361]}, {"n": "Ettlingen Wasen", "c": [48.94557, 8.39868]}, {"n": "Ettlingen Neuwiesenreben", "c": [48.95316, 8.40074]}, {"n": "Rüppurr Battstraße", "c": [48.9657, 8.40477]}, {"n": "Rüppurr Tulpenstraße", "c": [48.97134, 8.40405]}, {"n": "Rüppurr Ostendorfplatz", "c": [48.97599, 8.40664]}, {"n": "Schloss Rüppurr", "c": [48.98147, 8.40379]}, {"n": "Dammerstock", "c": [48.98468, 8.40364]}, {"n": "Albtalbahnhof", "c": [48.99356, 8.39596]}, {"n": "Hauptbahnhof (Vorplatz)", "c": [48.99432, 8.39917]}, {"n": "Poststraße", "c": [48.99504, 8.40307]}, {"n": "Augartenstraße", "c": [48.99847, 8.40371]}, {"n": "Kongresszentrum (U)", "c": [49.00217, 8.40311]}, {"n": "Ettlinger Tor/Staatstheater (U)", "c": [49.00508, 8.40343]}, {"n": "Marktplatz (Pyramide U)", "c": [49.0083, 8.40377]}, {"n": "Marktplatz (Kaiserstraße U)", "c": [49.00971, 8.40167]}, {"n": "Europaplatz (U)", "c": [49.01007, 8.39371]}, {"n": "Mühlburger Tor", "c": [49.01062, 8.38276]}, {"n": "Yorckstraße", "c": [49.01096, 8.37535]}, {"n": "Moltkestr./Städt. Klinikum", "c": [49.01571, 8.37517]}, {"n": "Knielinger Allee/Städt. Klinikum", "c": [49.01885, 8.37541]}, {"n": "August-Bebel-Straße", "c": [49.02416, 8.37578]}, {"n": "Kurt-Schumacher-Str.", "c": [49.03028, 8.3763]}, {"n": "Haus Bethlehem", "c": [49.0331, 8.37662]}, {"n": "Neureut Welschneureuter Straße", "c": [49.04482, 8.37471]}, {"n": "Neureut Bärenweg", "c": [49.04702, 8.37857]}, {"n": "Neureut Adolf-Ehrmann-Bad", "c": [49.05085, 8.38528]}, {"n": "Neureut Kirchfeld", "c": [49.053, 8.38908]}, {"n": "Eggenstein Süd", "c": [49.07145, 8.39622]}, {"n": "Eggenstein", "c": [49.07598, 8.39809]}, {"n": "Eggenstein Spöcker Weg", "c": [49.0802, 8.39986]}, {"n": "Eggenstein Schweriner Straße", "c": [49.08616, 8.40235]}, {"n": "Leopoldshafen Viermorgen", "c": [49.09046, 8.40024]}, {"n": "Leopoldshafen Leopoldstraße", "c": [49.09744, 8.40128]}]}, "geometry": {"type": "LineString", "coordinates": [[8.41509, 48.93689], [8.4089, 48.93877], [8.40361, 48.94124], [8.39868, 48.94557], [8.40074, 48.95316], [8.40477, 48.9657], [8.40405, 48.97134], [8.40664, 48.97599], [8.40379, 48.98147], [8.40364, 48.98468], [8.39596, 48.99356], [8.39917, 48.99432], [8.40307, 48.99504], [8.40371, 48.99847], [8.40311, 49.00217], [8.40377, 49.0083], [8.40167, 49.00971], [8.37535, 49.01096], [8.37517, 49.01571], [8.37578, 49.02416], [8.37662, 49.0331], [8.37471, 49.04482], [8.38908, 49.053], [8.39622, 49.07145], [8.40235, 49.08616], [8.40024, 49.09046], [8.40128, 49.09744]]}}, {"type": "Feature", "properties": {"line": "S5", "color": "#e17b7c", "stops": [{"n": "Maxau", "c": [49.03598, 8.30784]}, {"n": "Knielingen Rheinbergstraße", "c": [49.03534, 8.33616]}, {"n": "Knielingen Eggensteiner Straße", "c": [49.03351, 8.33822]}, {"n": "Knielingen Herweghstraße", "c": [49.03067, 8.34097]}, {"n": "Knielingen Siemens", "c": [49.02521, 8.34634]}, {"n": "Mühlburg West", "c": [49.02048, 8.35057]}, {"n": "Starckstraße", "c": [49.0164, 8.35289]}, {"n": "Lameyplatz", "c": [49.01323, 8.35448]}, {"n": "Entenfang", "c": [49.01054, 8.35917]}, {"n": "Philippstraße", "c": [49.01145, 8.36417]}, {"n": "Händelstraße", "c": [49.01125, 8.36905]}, {"n": "Yorckstraße", "c": [49.01096, 8.37535]}, {"n": "Mühlburger Tor", "c": [49.01062, 8.38276]}, {"n": "Europaplatz (U)", "c": [49.01007, 8.39371]}, {"n": "Marktplatz (Kaiserstraße U)", "c": [49.00971, 8.40167]}, {"n": "Kronenplatz (U)", "c": [49.00936, 8.40998]}, {"n": "Durlacher Tor/KIT-Campus Süd (U)", "c": [49.009, 8.41669]}, {"n": "Gottesauer Platz/BGV", "c": [49.00758, 8.42455]}, {"n": "Tullastraße/Alter Schlachthof", "c": [49.00629, 8.43165]}, {"n": "Weinweg", "c": [49.0045, 8.44112]}, {"n": "Durlach Untermühlstraße", "c": [49.00207, 8.45497]}, {"n": "Durlach Bahnhof", "c": [49.0027, 8.46282]}, {"n": "Durlach Hubstraße", "c": [49.00723, 8.47249]}, {"n": "Grötzingen", "c": [49.00607, 8.49293]}, {"n": "Grötzingen Oberausstraße", "c": [49.00518, 8.50391]}, {"n": "Grötzingen Krappmühlenweg", "c": [49.00587, 8.5127]}, {"n": "Berghausen Pfinzbrücke", "c": [49.00651, 8.52086]}]}, "geometry": {"type": "LineString", "coordinates": [[8.30784, 49.03598], [8.33616, 49.03534], [8.33822, 49.03351], [8.34634, 49.02521], [8.35057, 49.02048], [8.35289, 49.0164], [8.35448, 49.01323], [8.35917, 49.01054], [8.36417, 49.01145], [8.41669, 49.009], [8.45497, 49.00207], [8.46282, 49.0027], [8.47249, 49.00723], [8.49293, 49.00607], [8.50391, 49.00518], [8.52086, 49.00651]]}}, {"type": "Feature", "properties": {"line": "S7", "color": "#fff90a", "stops": [{"n": "Tullastraße/Alter Schlachthof", "c": [49.00629, 8.43165]}, {"n": "Gottesauer Platz/BGV", "c": [49.00758, 8.42455]}, {"n": "Durlacher Tor/KIT-Campus Süd (U)", "c": [49.009, 8.41669]}, {"n": "Kronenplatz (U)", "c": [49.00936, 8.40998]}, {"n": "Marktplatz (Pyramide U)", "c": [49.0083, 8.40377]}, {"n": "Ettlinger Tor/Staatstheater (U)", "c": [49.00508, 8.40343]}, {"n": "Kongresszentrum (U)", "c": [49.00217, 8.40311]}, {"n": "Augartenstraße", "c": [48.99847, 8.40371]}, {"n": "Poststraße", "c": [48.99504, 8.40307]}, {"n": "Hauptbahnhof (Vorplatz)", "c": [48.99432, 8.39917]}, {"n": "Albtalbahnhof", "c": [48.99356, 8.39596]}, {"n": "Forchheim (b Karlsruhe)", "c": [48.96445, 8.33809]}]}, "geometry": {"type": "LineString", "coordinates": [[8.43165, 49.00629], [8.41669, 49.009], [8.40998, 49.00936], [8.40377, 49.0083], [8.40311, 49.00217], [8.40371, 48.99847], [8.40307, 48.99504], [8.39917, 48.99432], [8.39596, 48.99356], [8.33809, 48.96445]]}}, {"type": "Feature", "properties": {"line": "S8", "color": "#4d4f23", "stops": [{"n": "Tullastraße/Alter Schlachthof", "c": [49.00629, 8.43165]}, {"n": "Gottesauer Platz/BGV", "c": [49.00758, 8.42455]}, {"n": "Durlacher Tor/KIT-Campus Süd (U)", "c": [49.009, 8.41669]}, {"n": "Kronenplatz (U)", "c": [49.00936, 8.40998]}, {"n": "Marktplatz (Pyramide U)", "c": [49.0083, 8.40377]}, {"n": "Ettlinger Tor/Staatstheater (U)", "c": [49.00508, 8.40343]}, {"n": "Kongresszentrum (U)", "c": [49.00217, 8.40311]}, {"n": "Augartenstraße", "c": [48.99847, 8.40371]}, {"n": "Poststraße", "c": [48.99504, 8.40307]}, {"n": "Hauptbahnhof (Vorplatz)", "c": [48.99432, 8.39917]}, {"n": "Albtalbahnhof", "c": [48.99356, 8.39596]}, {"n": "Forchheim (b Karlsruhe)", "c": [48.96445, 8.33809]}]}, "geometry": {"type": "LineString", "coordinates": [[8.43165, 49.00629], [8.41669, 49.009], [8.40998, 49.00936], [8.40377, 49.0083], [8.40311, 49.00217], [8.40371, 48.99847], [8.40307, 48.99504], [8.39917, 48.99432], [8.39596, 48.99356], [8.33809, 48.96445]]}}, {"type": "Feature", "properties": {"line": "S11", "color": "#008e50", "stops": [{"n": "Leopoldshafen Leopoldstraße", "c": [49.09744, 8.40128]}, {"n": "Leopoldshafen Viermorgen", "c": [49.09046, 8.40024]}, {"n": "Eggenstein Schweriner Straße", "c": [49.08616, 8.40235]}, {"n": "Eggenstein Spöcker Weg", "c": [49.0802, 8.39986]}, {"n": "Eggenstein", "c": [49.07598, 8.39809]}, {"n": "Eggenstein Süd", "c": [49.07145, 8.39622]}, {"n": "Neureut Kirchfeld", "c": [49.053, 8.38908]}, {"n": "Neureut Adolf-Ehrmann-Bad", "c": [49.05085, 8.38528]}, {"n": "Neureut Bärenweg", "c": [49.04702, 8.37857]}, {"n": "Neureut Welschneureuter Straße", "c": [49.04482, 8.37471]}, {"n": "Haus Bethlehem", "c": [49.0331, 8.37662]}, {"n": "Kurt-Schumacher-Str.", "c": [49.03028, 8.3763]}, {"n": "August-Bebel-Straße", "c": [49.02416, 8.37578]}, {"n": "Knielinger Allee/Städt. Klinikum", "c": [49.01885, 8.37541]}, {"n": "Moltkestr./Städt. Klinikum", "c": [49.01571, 8.37517]}, {"n": "Yorckstraße", "c": [49.01096, 8.37535]}, {"n": "Mühlburger Tor", "c": [49.01062, 8.38276]}, {"n": "Europaplatz (U)", "c": [49.01007, 8.39371]}, {"n": "Marktplatz (Kaiserstraße U)", "c": [49.00971, 8.40167]}, {"n": "Marktplatz (Pyramide U)", "c": [49.0083, 8.40377]}, {"n": "Ettlinger Tor/Staatstheater (U)", "c": [49.00508, 8.40343]}, {"n": "Kongresszentrum (U)", "c": [49.00217, 8.40311]}, {"n": "Augartenstraße", "c": [48.99847, 8.40371]}, {"n": "Poststraße", "c": [48.99504, 8.40307]}, {"n": "Hauptbahnhof (Vorplatz)", "c": [48.99432, 8.39917]}, {"n": "Albtalbahnhof", "c": [48.99356, 8.39596]}, {"n": "Dammerstock", "c": [48.98468, 8.40364]}, {"n": "Schloss Rüppurr", "c": [48.98147, 8.40379]}, {"n": "Rüppurr Ostendorfplatz", "c": [48.97599, 8.40664]}, {"n": "Rüppurr Tulpenstraße", "c": [48.97134, 8.40405]}, {"n": "Rüppurr Battstraße", "c": [48.9657, 8.40477]}, {"n": "Ettlingen Neuwiesenreben", "c": [48.95316, 8.40074]}, {"n": "Ettlingen Wasen", "c": [48.94557, 8.39868]}, {"n": "Ettlingen Erbprinz/Schloss", "c": [48.94124, 8.40361]}, {"n": "Ettlingen Stadt", "c": [48.93877, 8.4089]}, {"n": "Ettlingen Albgaubad", "c": [48.93689, 8.41509]}, {"n": "Ettlingen Spinnerei", "c": [48.93473, 8.44173]}, {"n": "Busenbach", "c": [48.92915, 8.45065]}, {"n": "Reichenbach Kurpark", "c": [48.9191, 8.47252]}, {"n": "Reichenbach (b. Ettlingen)", "c": [48.9202, 8.47917]}, {"n": "Langensteinbach Schießhüttenäcker", "c": [48.92008, 8.49904]}, {"n": "Langensteinbach", "c": [48.9154, 8.50311]}, {"n": "Langensteinbach St. Barbara", "c": [48.90983, 8.49993]}, {"n": "Spielberg (Baden)", "c": [48.89775, 8.47462]}, {"n": "Ittersbach Industrie", "c": [48.88474, 8.50897]}]}, "geometry": {"type": "LineString", "coordinates": [[8.40128, 49.09744], [8.40024, 49.09046], [8.40235, 49.08616], [8.39622, 49.07145], [8.38908, 49.053], [8.37471, 49.04482], [8.37662, 49.0331], [8.37578, 49.02416], [8.37517, 49.01571], [8.37535, 49.01096], [8.40167, 49.00971], [8.40377, 49.0083], [8.40311, 49.00217], [8.40371, 48.99847], [8.40307, 48.99504], [8.39917, 48.99432], [8.39596, 48.99356], [8.40364, 48.98468], [8.40379, 48.98147], [8.40664, 48.97599], [8.40405, 48.97134], [8.40477, 48.9657], [8.40074, 48.95316], [8.39868, 48.94557], [8.40361, 48.94124], [8.4089, 48.93877], [8.41509, 48.93689], [8.44173, 48.93473], [8.45065, 48.92915], [8.47252, 48.9191], [8.47917, 48.9202], [8.49904, 48.92008], [8.50311, 48.9154], [8.49993, 48.90983], [8.47462, 48.89775], [8.50897, 48.88474]]}}, {"type": "Feature", "properties": {"line": "S12", "color": "#008e50", "stops": [{"n": "Tullastraße/Alter Schlachthof", "c": [49.00629, 8.43165]}, {"n": "Schloss Gottesaue", "c": [49.00365, 8.42693]}, {"n": "Wolfartsweierer Str.", "c": [49.00356, 8.42306]}, {"n": "Ostendstraße", "c": [49.00514, 8.41601]}, {"n": "Rüppurrer Tor", "c": [49.00482, 8.41037]}, {"n": "Ettlinger Tor/Staatstheater", "c": [49.00548, 8.40222]}, {"n": "Karlstor/Bundesgerichtshof", "c": [49.00518, 8.39462]}, {"n": "Mathystraße", "c": [49.00217, 8.39433]}, {"n": "Kolpingplatz", "c": [48.99773, 8.3938]}, {"n": "Ebertstraße", "c": [48.99459, 8.39468]}, {"n": "Albtalbahnhof", "c": [48.99356, 8.39596]}, {"n": "Ettlingen Wasen", "c": [48.94557, 8.39868]}, {"n": "Ettlingen Erbprinz/Schloss", "c": [48.94124, 8.40361]}, {"n": "Ettlingen Stadt", "c": [48.93877, 8.4089]}, {"n": "Ettlingen Albgaubad", "c": [48.93689, 8.41509]}, {"n": "Busenbach", "c": [48.92915, 8.45065]}, {"n": "Reichenbach Kurpark", "c": [48.9191, 8.47252]}, {"n": "Reichenbach (b. Ettlingen)", "c": [48.9202, 8.47917]}, {"n": "Langensteinbach Schießhüttenäcker", "c": [48.92008, 8.49904]}, {"n": "Langensteinbach", "c": [48.9154, 8.50311]}, {"n": "Langensteinbach St. Barbara", "c": [48.90983, 8.49993]}, {"n": "Spielberg (Baden)", "c": [48.89775, 8.47462]}, {"n": "Ittersbach Industrie", "c": [48.88474, 8.50897]}]}, "geometry": {"type": "LineString", "coordinates": [[8.43165, 49.00629], [8.42693, 49.00365], [8.42306, 49.00356], [8.41601, 49.00514], [8.41037, 49.00482], [8.40222, 49.00548], [8.39462, 49.00518], [8.3938, 48.99773], [8.39468, 48.99459], [8.39596, 48.99356], [8.39868, 48.94557], [8.40361, 48.94124], [8.4089, 48.93877], [8.41509, 48.93689], [8.45065, 48.92915], [8.47252, 48.9191], [8.47917, 48.9202], [8.49904, 48.92008], [8.50311, 48.9154], [8.49993, 48.90983], [8.47462, 48.89775], [8.50897, 48.88474]]}}, {"type": "Feature", "properties": {"line": "S31", "color": "#00907a", "stops": [{"n": "Hauptbahnhof", "c": [48.99332, 8.40139]}, {"n": "Karlsruhe-Durlach", "c": [49.00207, 8.4626]}, {"n": "Weingarten (Baden)", "c": [49.05923, 8.52138]}]}, "geometry": {"type": "LineString", "coordinates": [[8.40139, 48.99332], [8.4626, 49.00207], [8.52138, 49.05923]]}}, {"type": "Feature", "properties": {"line": "S32", "color": "#00907a", "stops": [{"n": "Hauptbahnhof", "c": [48.99332, 8.40139]}, {"n": "Karlsruhe-Durlach", "c": [49.00207, 8.4626]}, {"n": "Weingarten (Baden)", "c": [49.05923, 8.52138]}]}, "geometry": {"type": "LineString", "coordinates": [[8.40139, 48.99332], [8.4626, 49.00207], [8.52138, 49.05923]]}}, {"type": "Feature", "properties": {"line": "S51", "color": "#e17b7c", "stops": [{"n": "Knielingen Rheinbergstraße", "c": [49.03534, 8.33616]}, {"n": "Knielingen Eggensteiner Straße", "c": [49.03351, 8.33822]}, {"n": "Knielingen Herweghstraße", "c": [49.03067, 8.34097]}, {"n": "Knielingen Siemens", "c": [49.02521, 8.34634]}, {"n": "Mühlburg West", "c": [49.02048, 8.35057]}, {"n": "Starckstraße", "c": [49.0164, 8.35289]}, {"n": "Lameyplatz", "c": [49.01323, 8.35448]}, {"n": "Entenfang", "c": [49.01054, 8.35917]}, {"n": "Philippstraße", "c": [49.01145, 8.36417]}, {"n": "Händelstraße", "c": [49.01125, 8.36905]}, {"n": "Yorckstraße", "c": [49.01096, 8.37535]}, {"n": "Mühlburger Tor", "c": [49.01062, 8.38276]}, {"n": "Europaplatz (U)", "c": [49.01007, 8.39371]}, {"n": "Marktplatz (Kaiserstraße U)", "c": [49.00971, 8.40167]}, {"n": "Kronenplatz (U)", "c": [49.00936, 8.40998]}, {"n": "Durlacher Tor/KIT-Campus Süd (U)", "c": [49.009, 8.41669]}, {"n": "Gottesauer Platz/BGV", "c": [49.00758, 8.42455]}, {"n": "Tullastraße/Alter Schlachthof", "c": [49.00629, 8.43165]}, {"n": "Weinweg", "c": [49.0045, 8.44112]}, {"n": "Durlach Untermühlstraße", "c": [49.00207, 8.45497]}, {"n": "Durlach Bahnhof", "c": [49.0027, 8.46282]}, {"n": "Durlach Hubstraße", "c": [49.00723, 8.47249]}, {"n": "Grötzingen", "c": [49.00607, 8.49293]}, {"n": "Grötzingen Oberausstraße", "c": [49.00518, 8.50391]}, {"n": "Grötzingen Krappmühlenweg", "c": [49.00587, 8.5127]}, {"n": "Berghausen Pfinzbrücke", "c": [49.00651, 8.52086]}]}, "geometry": {"type": "LineString", "coordinates": [[8.33616, 49.03534], [8.33822, 49.03351], [8.34634, 49.02521], [8.35057, 49.02048], [8.35289, 49.0164], [8.35448, 49.01323], [8.35917, 49.01054], [8.36417, 49.01145], [8.41669, 49.009], [8.45497, 49.00207], [8.46282, 49.0027], [8.47249, 49.00723], [8.49293, 49.00607], [8.50391, 49.00518], [8.52086, 49.00651]]}}, {"type": "Feature", "properties": {"line": "S52", "color": "#e17b7c", "stops": [{"n": "Marktplatz (Pyramide U)", "c": [49.0083, 8.40377]}, {"n": "Ettlinger Tor/Staatstheater (U)", "c": [49.00508, 8.40343]}, {"n": "Kongresszentrum (U)", "c": [49.00217, 8.40311]}, {"n": "Augartenstraße", "c": [48.99847, 8.40371]}, {"n": "Poststraße", "c": [48.99504, 8.40307]}, {"n": "Hauptbahnhof (Vorplatz)", "c": [48.99432, 8.39917]}, {"n": "Albtalbahnhof", "c": [48.99356, 8.39596]}, {"n": "Karlsruhe-Mühlburg", "c": [49.0149, 8.35094]}, {"n": "Karlsruhe-Knielingen", "c": [49.02692, 8.34088]}, {"n": "Maxau", "c": [49.03598, 8.30784]}]}, "geometry": {"type": "LineString", "coordinates": [[8.40377, 49.0083], [8.40311, 49.00217], [8.40371, 48.99847], [8.40307, 48.99504], [8.39917, 48.99432], [8.39596, 48.99356], [8.35094, 49.0149], [8.34088, 49.02692], [8.30784, 49.03598]]}}, {"type": "Feature", "properties": {"line": "S71", "color": "#fff90a", "stops": [{"n": "Malsch Süd", "c": [48.88743, 8.31522]}, {"n": "Malsch", "c": [48.88959, 8.32415]}, {"n": "Bruchhausen (b. Ettlingen)", "c": [48.92439, 8.37448]}, {"n": "Ettlingen West", "c": [48.94747, 8.38796]}, {"n": "Hauptbahnhof", "c": [48.99332, 8.40139]}]}, "geometry": {"type": "LineString", "coordinates": [[8.31522, 48.88743], [8.32415, 48.88959], [8.37448, 48.92439], [8.38796, 48.94747], [8.40139, 48.99332]]}}, {"type": "Feature", "properties": {"line": "S81", "color": "#4d4f23", "stops": [{"n": "Malsch Süd", "c": [48.88743, 8.31522]}, {"n": "Malsch", "c": [48.88959, 8.32415]}, {"n": "Bruchhausen (b. Ettlingen)", "c": [48.92439, 8.37448]}, {"n": "Ettlingen West", "c": [48.94747, 8.38796]}, {"n": "Hauptbahnhof", "c": [48.99332, 8.40139]}]}, "geometry": {"type": "LineString", "coordinates": [[8.31522, 48.88743], [8.32415, 48.88959], [8.37448, 48.92439], [8.38796, 48.94747], [8.40139, 48.99332]]}}, {"type": "Feature", "properties": {"line": "S53", "color": "#ff80b3", "stops": [{"n": "Maxau", "c": [49.03598, 8.30784]}, {"n": "Karlsruhe-Knielingen", "c": [49.02692, 8.34088]}, {"n": "Karlsruhe-Mühlburg", "c": [49.0149, 8.35094]}, {"n": "West", "c": [49.00228, 8.36283]}, {"n": "Albtalbahnhof", "c": [48.99356, 8.39596]}]}, "geometry": {"type": "LineString", "coordinates": [[8.30784, 49.03598], [8.34088, 49.02692], [8.35094, 49.0149], [8.36283, 49.00228], [8.39596, 48.99356]]}}, {"type": "Feature", "properties": {"line": "FEX", "color": "#00b875", "stops": [{"n": "Weingarten (Baden)", "c": [49.05923, 8.52138]}, {"n": "Karlsruhe-Durlach", "c": [49.00207, 8.4626]}, {"n": "Hauptbahnhof", "c": [48.99332, 8.40139]}, {"n": "Ettlingen West", "c": [48.94747, 8.38796]}, {"n": "Ettlingen Stadt", "c": [48.93877, 8.4089]}, {"n": "Busenbach", "c": [48.92915, 8.45065]}, {"n": "Etzenrot", "c": [48.9141, 8.45766]}, {"n": "Fischweier", "c": [48.88824, 8.45131]}]}, "geometry": {"type": "LineString", "coordinates": [[8.52138, 49.05923], [8.4626, 49.00207], [8.40139, 48.99332], [8.38796, 48.94747], [8.4089, 48.93877], [8.45065, 48.92915], [8.45766, 48.9141], [8.45131, 48.88824]]}}]}